CCSDS_OEM_VERS = 1.0
CREATION_DATE  = 2017-05-11T11:38:20
ORIGINATOR     = GMAT USER

META_START
OBJECT_NAME          = MOPSSat_alt_35785_km_RAAN_180_100
OBJECT_ID            = SatId
CENTER_NAME          = Earth
REF_FRAME            = EME2000
TIME_SYSTEM          = UTC
START_TIME           = 2017-01-01T00:00:00.000
USEABLE_START_TIME   = 2017-01-01T00:00:00.000
USEABLE_STOP_TIME    = 2017-01-02T00:00:00.000
STOP_TIME            = 2017-01-02T00:00:00.000
INTERPOLATION        = Lagrange
INTERPOLATION_DEGREE = 7 
META_STOP


                                                                                   

2017-01-01T22:36:40.000  -3.486557556387466e+04   1.573975934678581e+04  -1.360572106887796e+02  -1.271461613445117e+00  -3.125530987220333e+00   2.744514509932532e-02
2017-01-01T22:36:50.000  -3.487827776474630e+04   1.570849843672573e+04  -1.357827106818766e+02  -1.268978368849528e+00  -3.126650672384131e+00   2.745485318140587e-02
2017-01-01T22:37:00.000  -3.489095512754199e+04   1.567722634007371e+04  -1.355081136844036e+02  -1.266493973056145e+00  -3.127768242367162e+00   2.746454265800997e-02
2017-01-01T22:37:10.000  -3.490360764075213e+04   1.564594307800459e+04  -1.352334198826172e+02  -1.264008428107236e+00  -3.128883695726443e+00   2.747421351656505e-02
2017-01-01T22:37:20.000  -3.491623529276184e+04   1.561464867202595e+04  -1.349586294656949e+02  -1.261521736072637e+00  -3.129997031010204e+00   2.748386574442271e-02
2017-01-01T22:37:30.000  -3.492883807201169e+04   1.558334314357154e+04  -1.346837426221643e+02  -1.259033899017415e+00  -3.131108246772068e+00   2.749349932898166e-02
2017-01-01T22:37:40.000  -3.494141596693411e+04   1.555202651416119e+04  -1.344087595413084e+02  -1.256544919014581e+00  -3.132217341565439e+00   2.750311425763902e-02
2017-01-01T22:37:50.000  -3.495396896623720e+04   1.552069880469418e+04  -1.341336804069601e+02  -1.254054798088931e+00  -3.133324313968540e+00   2.751271051800748e-02
2017-01-01T22:38:00.000  -3.496649705862067e+04   1.548936003615574e+04  -1.338585054037061e+02  -1.251563538273187e+00  -3.134429162559363e+00   2.752228809769801e-02
2017-01-01T22:38:10.000  -3.497900023284057e+04   1.545801022945750e+04  -1.335832347154858e+02  -1.249071141595325e+00  -3.135531885921375e+00   2.753184698436942e-02
2017-01-01T22:38:20.000  -3.499147847754389e+04   1.542664940584194e+04  -1.333078685291428e+02  -1.246577610110689e+00  -3.136632482628945e+00   2.754138716560194e-02
2017-01-01T22:38:30.000  -3.500393178139236e+04   1.539527758658249e+04  -1.330324070317917e+02  -1.244082945878191e+00  -3.137730951258257e+00   2.755090862899191e-02
2017-01-01T22:38:40.000  -3.501636013306107e+04   1.536389479298294e+04  -1.327568504108122e+02  -1.241587150960236e+00  -3.138827290387193e+00   2.756041136215071e-02
2017-01-01T22:38:50.000  -3.502876352112235e+04   1.533250104668058e+04  -1.324811988565119e+02  -1.239090227446877e+00  -3.139921498585078e+00   2.756989535261594e-02
2017-01-01T22:39:00.000  -3.504114193420355e+04   1.530109636923839e+04  -1.322054525585440e+02  -1.236592177423336e+00  -3.141013574426618e+00   2.757936058797220e-02
2017-01-01T22:39:10.000  -3.505349536092336e+04   1.526968078230848e+04  -1.319296117073443e+02  -1.234093002983024e+00  -3.142103516486277e+00   2.758880705580227e-02
2017-01-01T22:39:20.000  -3.506582379017525e+04   1.523825430691138e+04  -1.316536764878015e+02  -1.231592706170189e+00  -3.143191323363286e+00   2.759823474390405e-02
2017-01-01T22:39:30.000  -3.507812721084317e+04   1.520681696415842e+04  -1.313776470856008e+02  -1.229091289037394e+00  -3.144276993656562e+00   2.760764364007294e-02
2017-01-01T22:39:40.000  -3.509040561187509e+04   1.517536877506540e+04  -1.311015236855876e+02  -1.226588753630688e+00  -3.145360525971204e+00   2.761703373215839e-02
2017-01-01T22:39:50.000  -3.510265898208431e+04   1.514390976105343e+04  -1.308253064761649e+02  -1.224085102029432e+00  -3.146441918900964e+00   2.762640500791174e-02
2017-01-01T22:40:00.000  -3.511488731031390e+04   1.511243994353576e+04  -1.305489956456661e+02  -1.221580336313449e+00  -3.147521171042752e+00   2.763575745511213e-02
2017-01-01T22:40:10.000  -3.512709058539996e+04   1.508095934400989e+04  -1.302725913831632e+02  -1.219074458570343e+00  -3.148598280993401e+00   2.764509106153836e-02
2017-01-01T22:40:20.000  -3.513926879618326e+04   1.504946798403326e+04  -1.299960938782532e+02  -1.216567470893585e+00  -3.149673247350694e+00   2.765440581497780e-02
2017-01-01T22:40:30.000  -3.515142193151994e+04   1.501796588519117e+04  -1.297195033207771e+02  -1.214059375379937e+00  -3.150746068714300e+00   2.766370170323457e-02
2017-01-01T22:40:40.000  -3.516354998028600e+04   1.498645306908549e+04  -1.294428199007201e+02  -1.211550174128561e+00  -3.151816743686199e+00   2.767297871413313e-02
2017-01-01T22:40:50.000  -3.517565293142166e+04   1.495492955722229e+04  -1.291660438072255e+02  -1.209039869232073e+00  -3.152885270874569e+00   2.768223683555202e-02
2017-01-01T22:41:00.000  -3.518773077390130e+04   1.492339537108654e+04  -1.288891752292499e+02  -1.206528462782482e+00  -3.153951648891161e+00   2.769147605540110e-02
2017-01-01T22:41:10.000  -3.519978349673386e+04   1.489185053214212e+04  -1.286122143555645e+02  -1.204015956871189e+00  -3.155015876351312e+00   2.770069636162170e-02
2017-01-01T22:41:20.000  -3.521181108899044e+04   1.486029506175624e+04  -1.283351613740902e+02  -1.201502353582959e+00  -3.156077951876414e+00   2.770989774220791e-02
2017-01-01T22:41:30.000  -3.522381353976209e+04   1.482872898131248e+04  -1.280580164728907e+02  -1.198987655004928e+00  -3.157137874090168e+00   2.771908018517417e-02
2017-01-01T22:41:40.000  -3.523579083815569e+04   1.479715231222228e+04  -1.277807798402734e+02  -1.196471863227522e+00  -3.158195641618224e+00   2.772824367855221e-02
2017-01-01T22:41:50.000  -3.524774297328034e+04   1.476556507595566e+04  -1.275034516650594e+02  -1.193954980346885e+00  -3.159251253086993e+00   2.773738821038070e-02
2017-01-01T22:42:00.000  -3.525966993423982e+04   1.473396729406728e+04  -1.272260321368113e+02  -1.191437008466971e+00  -3.160304707122978e+00   2.774651376869946e-02
2017-01-01T22:42:10.000  -3.527157171016699e+04   1.470235898810311e+04  -1.269485214450150e+02  -1.188917949692104e+00  -3.161356002355803e+00   2.775562034157569e-02
2017-01-01T22:42:20.000  -3.528344829006929e+04   1.467074018001799e+04  -1.266709197827446e+02  -1.186397806160272e+00  -3.162405137404576e+00   2.776470791698593e-02
2017-01-01T22:42:30.000  -3.529529966301653e+04   1.463911089166983e+04  -1.263932273422227e+02  -1.183876580002796e+00  -3.163452110894478e+00   2.777377648295967e-02
2017-01-01T22:42:40.000  -3.530712581807068e+04   1.460747114500756e+04  -1.261154443164697e+02  -1.181354273359313e+00  -3.164496921450575e+00   2.778282602752572e-02
2017-01-01T22:42:50.000  -3.531892674455843e+04   1.457582096134344e+04  -1.258375708929153e+02  -1.178830888319761e+00  -3.165539567721869e+00   2.779185653892069e-02
2017-01-01T22:43:00.000  -3.533070243179919e+04   1.454416036207876e+04  -1.255596072597700e+02  -1.176306426982232e+00  -3.166580048357311e+00   2.780086800538099e-02
2017-01-01T22:43:10.000  -3.534245286916719e+04   1.451248936853955e+04  -1.252815536045824e+02  -1.173780891439879e+00  -3.167618362011257e+00   2.780986041519033e-02
2017-01-01T22:43:20.000  -3.535417804593597e+04   1.448080800238533e+04  -1.250034101178283e+02  -1.171254283813466e+00  -3.168654507329748e+00   2.781883375656066e-02
2017-01-01T22:43:30.000  -3.536587795139474e+04   1.444911628530600e+04  -1.247251769902491e+02  -1.168726606227245e+00  -3.169688482960788e+00   2.782778801772141e-02
2017-01-01T22:43:40.000  -3.537755257484724e+04   1.441741423902127e+04  -1.244468544128470e+02  -1.166197860808883e+00  -3.170720287554245e+00   2.783672318691843e-02
2017-01-01T22:43:50.000  -3.538920190550268e+04   1.438570188558683e+04  -1.241684425795723e+02  -1.163668049713921e+00  -3.171749919752211e+00   2.784563925233065e-02
2017-01-01T22:44:00.000  -3.540082593262385e+04   1.435397924698240e+04  -1.238899416837082e+02  -1.161137175092883e+00  -3.172777378202095e+00   2.785453620218345e-02
2017-01-01T22:44:10.000  -3.541242464546842e+04   1.432224634527384e+04  -1.236113519192927e+02  -1.158605239104208e+00  -3.173802661551439e+00   2.786341402470369e-02
2017-01-01T22:44:20.000  -3.542399803355084e+04   1.429050320189708e+04  -1.233326734748323e+02  -1.156072243857121e+00  -3.174825768471070e+00   2.787227270832032e-02
2017-01-01T22:44:30.000  -3.543554608638019e+04   1.425874983837401e+04  -1.230539065395875e+02  -1.153538191468746e+00  -3.175846697631934e+00   2.788111224146359e-02
2017-01-01T22:44:40.000  -3.544706879352000e+04   1.422698627615079e+04  -1.227750513021528e+02  -1.151003084051208e+00  -3.176865447710375e+00   2.788993261261096e-02
2017-01-01T22:44:50.000  -3.545856614443547e+04   1.419521253700779e+04  -1.224961079540560e+02  -1.148466923744317e+00  -3.177882017374653e+00   2.789873381017017e-02
2017-01-01T22:45:00.000  -3.547003812860792e+04   1.416342864275560e+04  -1.222170766870891e+02  -1.145929712691338e+00  -3.178896405295037e+00   2.790751582256682e-02
2017-01-01T22:45:10.000  -3.548148473553338e+04   1.413163461523444e+04  -1.219379576933033e+02  -1.143391453038930e+00  -3.179908610143706e+00   2.791627863824334e-02
2017-01-01T22:45:20.000  -3.549290595461593e+04   1.409983047662117e+04  -1.216587511677041e+02  -1.140852146961687e+00  -3.180918630585296e+00   2.792502224557736e-02
2017-01-01T22:45:30.000  -3.550430177531278e+04   1.406801624901628e+04  -1.213794573046252e+02  -1.138311796629129e+00  -3.181926465289745e+00   2.793374663299273e-02
2017-01-01T22:45:40.000  -3.551567218707564e+04   1.403619195460940e+04  -1.211000762991825e+02  -1.135770404218931e+00  -3.182932112927110e+00   2.794245178891473e-02
